ONEWEB-0346             
1 49212U 21083AC  24001.45195580  .00000069  00000+0  14340-3 0  9995
2 49212  87.9217 154.0900 0001249  81.3793 278.7481 13.18686452111666
ONEWEB-0348             
1 49213U 21083AD  24001.32039093  .00000042  00000+0  71163-4 0  9996
2 49213  87.9190  93.1761 0001767  78.6795 281.4537 13.20775094118294
ONEWEB-0350             
1 49214U 21083AE  24001.44307996  .00000429  00000+0  11400-2 0  9995
2 49214  87.9007 138.8932 0001676  91.4503 268.6818 13.13469155113089
ONEWEB-0351             
1 49215U 21083AF  24001.31407536  .00000825  00000+0  19968-2 0  9990
2 49215  87.9196  93.1813 0002216 115.3830 244.7533 13.20769831118255
ONEWEB-0352             
1 49216U 21083AG  24001.42402563 -.00000282  00000+0 -80714-3 0  9995
2 49216  87.9007 138.9231 0001752 110.8916 249.2400 13.13471126113176
ONEWEB-0354             
1 49217U 21083AH  24001.26357926  .00000126  00000+0  27829-3 0  9993
2 49217  87.9190  93.1715 0002034  97.7750 262.3614 13.20771159118289
ONEWEB-0355             
1 49218U 21083AJ  24001.37801027  .00000261  00000+0  68049-3 0  9991
2 49218  87.9011 138.9314 0001690 102.2665 257.8654 13.13469987113046
ONEWEB-0357             
1 49219U 21083AK  24001.26042094  .00000127  00000+0  28074-3 0  9996
2 49219  87.9193  93.1951 0001793 102.4958 257.6375 13.20771983118287
